OBJECT_NAME,OBJECT_ID,EPOCH,MEAN_MOTION,ECCENTRICITY,INCLINATION,RA_OF_ASC_NODE,ARG_OF_PERICENTER,MEAN_ANOMALY,EPHEMERIS_TYPE,CLASSIFICATION_TYPE,NORAD_CAT_ID,ELEMENT_SET_NO,REV_AT_EPOCH,BSTAR,MEAN_MOTION_DOT,MEAN_MOTION_DDOT
TJS-7,2021-077A,2026-07-07T14:59:06.533952,1.00270592,.00032083,0.3055,264.2640,114.7338,31.8966,0,U,49115,999,975,0,-.108E-5,0
CHINASAT 9B,2021-080A,2026-07-07T16:14:45.781728,1.00272386,.00021328,0.0146,73.4652,65.5747,131.7133,0,U,49125,999,1785,0,-.298E-5,0
SHIJIAN-21 (SJ-21),2021-094A,2026-07-07T15:56:17.978208,1.00283348,.0051447,5.1585,61.0526,168.7238,62.5991,0,U,49330,999,556,0,-.336E-5,0
SES-17,2021-095A,2026-07-07T04:29:16.354176,1.00271019,.00012808,0.0214,43.2783,90.4716,151.6318,0,U,49332,999,1805,0,-.257E-5,0
SYRACUSE 4A,2021-095B,2026-07-07T10:32:19.688064,1.00270699,.00013374,0.0227,36.3258,64.8621,27.8151,0,U,49333,999,1815,0,0,0
QZS-1R (MICHIBIKI-1R),2021-096A,2026-07-07T14:19:35.596992,1.00248309,.07554062,37.5005,79.2823,272.1222,281.4736,0,U,49336,999,1721,0,-.264E-5,0
ZHONGXING-1D,2021-114A,2026-07-07T15:07:38.772768,1.00272952,.00001521,0.0548,243.4279,64.1837,335.0958,0,U,49505,999,1702,0,-.321E-5,0
STPSAT-6,2021-118A,2026-07-07T10:49:00.933600,1.00270202,.00009312,0.3698,85.2070,250.4494,0.2744,0,U,49817,999,1677,0,-.3E-6,0
EXPRESS AMU-7,2021-123A,2026-07-07T14:27:07.210656,1.00272579,.0000325,0.0337,268.8557,107.9850,270.5060,0,U,50001,999,1674,0,-.227E-5,0
EXPRESS AMU-3,2021-123B,2026-07-05T22:12:47.581344,1.00269062,.00004631,0.0178,350.4254,17.7985,351.7769,0,U,50002,999,722,0,0,0
TIANLIAN 2-02,2021-124A,2026-07-07T14:51:39.650688,1.00271846,.00010915,0.8511,85.8318,163.2810,70.3731,0,U,50005,999,1682,0,.1E-7,0
TURKSAT 5B,2021-126A,2026-07-07T07:06:09.432864,1.00271148,.00025514,0.0705,336.2837,19.9544,77.5642,0,U,50212,999,1650,0,.161E-5,0
INMARSAT 6-F1,2021-128A,2026-07-07T14:08:44.139264,1.00270094,.00000202,0.0213,287.7868,248.9944,44.7105,0,U,50319,999,1646,0,-.156E-5,0
SHIYAN-12 01 (SY-12 01),2021-129A,2026-07-07T17:22:25.226112,1.00047762,.0002705,3.7241,79.6371,288.2079,221.6946,0,U,50321,999,1670,0,.161E-5,0
SHIYAN-12 02 (SY-12 02),2021-129B,2026-07-07T17:40:01.036704,1.00481370,.0003073,3.7234,79.6381,66.7651,149.0857,0,U,50322,999,1670,0,-.336E-5,0
TJS-9,2021-135A,2026-07-07T04:16:38.837856,1.00267264,.00034341,0.0309,120.5640,306.5572,59.3524,0,U,50574,999,1663,0,-.285E-5,0
GOES 18,2022-021A,2026-07-07T13:30:53.794368,1.00271393,.00005499,0.0038,164.6235,8.2423,178.3784,0,U,51850,999,679,0,.112E-5,0
ZHONGXING-6D,2022-038A,2026-07-06T20:40:27.818976,1.00269269,.00005891,0.0397,91.8561,92.9382,175.2069,0,U,52255,999,1561,0,-.339E-5,0
NILESAT 301,2022-061A,2026-07-07T13:42:51.100992,1.00273018,.00042583,0.0517,332.9223,89.1660,62.2018,0,U,52817,999,1494,0,-.42E-6,0
CMS-02 (GSAT-24),2022-067A,2026-07-07T10:43:11.146656,1.00269528,.00008613,0.0145,50.2966,310.3788,168.5174,0,U,52903,999,1481,0,0,0
MEASAT 3D,2022-067B,2026-07-07T07:20:08.091744,1.00268908,.0000255,0.0278,345.7496,118.7223,22.3254,0,U,52904,999,1485,0,-.226E-5,0
SES-22,2022-071A,2026-07-06T18:15:56.227680,1.00273213,.00010187,0.0347,275.9106,193.2307,310.5886,0,U,52933,999,771,0,.119E-5,0
WFOV (USA 332),2022-073A,2026-07-07T14:18:50.668992,1.00271689,.00013998,3.7598,78.2722,221.8092,319.5145,0,U,52940,999,1457,0,-.349E-5,0
TIANLIAN 2-03,2022-078A,2026-07-07T13:47:50.622144,1.00274302,.00009374,0.7221,77.3842,354.5362,71.1724,0,U,53100,999,1475,0,.87E-6,0
SBIRS GEO-6 (USA 336),2022-092A,2026-07-07T15:04:45.424992,1.00270909,.00018686,3.2247,317.8017,148.4671,184.5233,0,U,53355,999,1443,0,-.276E-5,0
EUTELSAT KONNECT VHTS,2022-110A,2026-07-07T13:45:35.838144,1.00268582,.00029509,0.0590,99.0397,341.7984,53.8065,0,U,53765,999,704,0,.32E-6,0
ZHONGXING-1E,2022-112A,2026-07-07T16:14:29.929056,1.00269849,.00006022,0.0401,126.1645,108.7483,15.7468,0,U,53813,999,1405,0,-.134E-5,0
SES-20,2022-123A,2026-07-06T21:51:33.429312,1.00270215,.0001997,0.0199,67.0885,23.9896,58.5838,0,U,53960,999,1373,0,-.86E-6,0
SES-21,2022-123B,2026-07-07T13:07:17.009760,1.00268118,.00009336,0.0389,28.8061,78.8695,243.7319,0,U,53961,999,741,0,0,0
GALAXY 33 (G-33),2022-128A,2026-07-07T13:06:54.545760,1.00273122,.0001777,0.0140,318.6595,148.3980,242.1907,0,U,54026,999,1394,0,.94E-6,0
GALAXY 34 (G-34),2022-128B,2026-07-06T16:36:07.830720,1.00275248,.00018292,0.0172,18.6774,102.5440,283.4893,0,U,54027,999,1410,0,0,0
ANGOSAT 2,2022-131A,2026-07-06T20:44:50.764416,1.00272085,.00000459,0.0217,125.5214,258.6800,234.8461,0,U,54033,999,1367,0,.15E-5,0
